[{"OBJECT_NAME":"SBSS (USA 216)","OBJECT_ID":"2010-048A","EPOCH":"2026-03-09T21:16:11.917056","MEAN_MOTION":15.1572421,"ECCENTRICITY":0.0082264,"INCLINATION":97.7474,"RA_OF_ASC_NODE":312.3885,"ARG_OF_PERICENTER":184.8326,"MEAN_ANOMALY":306.5835,"EPHEMERIS_TYPE":0,"CLASSIFICATION_TYPE":"U","NORAD_CAT_ID":37168,"ELEMENT_SET_NO":999,"REV_AT_EPOCH":83742,"BSTAR":0.00024191,"MEAN_MOTION_DOT":4.946e-5,"MEAN_MOTION_DDOT":0},{"OBJECT_NAME":"STARLINK-30441","OBJECT_ID":"2023-144F","EPOCH":"2026-03-08T23:50:40.709472","MEAN_MOTION":15.26742636,"ECCENTRICITY":0.00012396,"INCLINATION":42.9993,"RA_OF_ASC_NODE":288.8591,"ARG_OF_PERICENTER":270.5362,"MEAN_ANOMALY":89.5347,"EPHEMERIS_TYPE":0,"CLASSIFICATION_TYPE":"U","NORAD_CAT_ID":57869,"ELEMENT_SET_NO":999,"REV_AT_EPOCH":13749,"BSTAR":-4.321592e-6,"MEAN_MOTION_DOT":-3.76e-6,"MEAN_MOTION_DDOT":0}]
